{
  "type": "FeatureCollection",
  "features": [
    {
      "type": "Feature",
      "properties": {
        "norad_id": 31192,
        "name": "FENGYUN 1C DEB",
        "group": "fengyun-1c-debris",
        "lat": -81.06871458124581,
        "lon": 89.34541473889271,
        "alt_km": 1004.3975434940658,
        "timestamp": "2025-12-25T07:41:10.004025+00:00",
        "meta_object_name": "FENGYUN 1C DEB",
        "meta_object_id": "1999-025BJW",
        "meta_epoch": "2025-12-24T05:05:25.782144",
        "meta_mean_motion": 14.20981381,
        "meta_eccentricity": 0.02596347,
        "meta_inclination": 98.5539,
        "meta_ra_of_asc_node": 341.5484,
        "meta_arg_of_pericenter": 70.5745,
        "meta_mean_anomaly": 292.3294,
        "meta_ephemeris_type": 0,
        "meta_classification_type": "U",
        "meta_norad_cat_id": 31192,
        "meta_element_set_no": 999,
        "meta_rev_at_epoch": 96906,
        "meta_bstar": 0.00034887219,
        "meta_mean_motion_dot": 1.018e-05,
        "meta_mean_motion_ddot": 0,
        "tle_line1": "1 31192U 99025BJW 25358.21210396  .00001018  00000+0  34887-3 0  9990",
        "tle_line2": "2 31192  98.5539 341.5484 0259634  70.5745 292.3294 14.20981381969061"
      },
      "geometry": {
        "type": "Point",
        "coordinates": [
          89.34541473889271,
          -81.06871458124581
        ]
      }
    },
    {
      "type": "Feature",
      "properties": {
        "norad_id": 31194,
        "name": "FENGYUN 1C DEB",
        "group": "fengyun-1c-debris",
        "lat": -3.4078300519044786,
        "lon": 68.36409683663223,
        "alt_km": 751.3585587124462,
        "timestamp": "2025-12-25T07:41:10.004035+00:00",
        "meta_object_name": "FENGYUN 1C DEB",
        "meta_object_id": "1999-025BJY",
        "meta_epoch": "2025-12-24T15:47:14.452224",
        "meta_mean_motion": 14.36711942,
        "meta_eccentricity": 0.00567634,
        "meta_inclination": 98.9634,
        "meta_ra_of_asc_node": 248.2133,
        "meta_arg_of_pericenter": 243.7654,
        "meta_mean_anomaly": 115.769,
        "meta_ephemeris_type": 0,
        "meta_classification_type": "U",
        "meta_norad_cat_id": 31194,
        "meta_element_set_no": 999,
        "meta_rev_at_epoch": 97298,
        "meta_bstar": 0.0009056253,
        "meta_mean_motion_dot": 2.672e-05,
        "meta_mean_motion_ddot": 0,
        "tle_line1": "1 31194U 99025BJY 25358.65780616  .00002672  00000+0  90563-3 0  9997",
        "tle_line2": "2 31194  98.9634 248.2133 0056763 243.7654 115.7690 14.36711942972982"
      },
      "geometry": {
        "type": "Point",
        "coordinates": [
          68.36409683663223,
          -3.4078300519044786
        ]
      }
    },
    {
      "type": "Feature",
      "properties": {
        "norad_id": 31195,
        "name": "FENGYUN 1C DEB",
        "group": "fengyun-1c-debris",
        "lat": 64.876400506011,
        "lon": -128.46372516046588,
        "alt_km": 753.6114011388554,
        "timestamp": "2025-12-25T07:41:10.004045+00:00",
        "meta_object_name": "FENGYUN 1C DEB",
        "meta_object_id": "1999-025BJZ",
        "meta_epoch": "2025-12-22T07:30:58.600800",
        "meta_mean_motion": 14.07984939,
        "meta_eccentricity": 0.01723215,
        "meta_inclination": 98.778,
        "meta_ra_of_asc_node": 29.3728,
        "meta_arg_of_pericenter": 154.2351,
        "meta_mean_anomaly": 206.7529,
        "meta_ephemeris_type": 0,
        "meta_classification_type": "U",
        "meta_norad_cat_id": 31195,
        "meta_element_set_no": 999,
        "meta_rev_at_epoch": 96233,
        "meta_bstar": 0.00023249282,
        "meta_mean_motion_dot": 4.11e-06,
        "meta_mean_motion_ddot": 0,
        "tle_line1": "1 31195U 99025BJZ 25356.31317825  .00000411  00000+0  23249-3 0  9993",
        "tle_line2": "2 31195  98.7780  29.3728 0172321 154.2351 206.7529 14.07984939962336"
      },
      "geometry": {
        "type": "Point",
        "coordinates": [
          -128.46372516046588,
          64.876400506011
        ]
      }
    },
    {
      "type": "Feature",
      "properties": {
        "norad_id": 31196,
        "name": "FENGYUN 1C DEB",
        "group": "fengyun-1c-debris",
        "lat": 48.73424176522202,
        "lon": -157.96147792213404,
        "alt_km": 772.6661122439991,
        "timestamp": "2025-12-25T07:41:10.004055+00:00",
        "meta_object_name": "FENGYUN 1C DEB",
        "meta_object_id": "1999-025BKA",
        "meta_epoch": "2025-12-20T07:28:00.268608",
        "meta_mean_motion": 14.25476414,
        "meta_eccentricity": 0.00582224,
        "meta_inclination": 98.5261,
        "meta_ra_of_asc_node": 7.3249,
        "meta_arg_of_pericenter": 189.9584,
        "meta_mean_anomaly": 170.0447,
        "meta_ephemeris_type": 0,
        "meta_classification_type": "U",
        "meta_norad_cat_id": 31196,
        "meta_element_set_no": 999,
        "meta_rev_at_epoch": 63603,
        "meta_bstar": 0.00037193208,
        "meta_mean_motion_dot": 8.52e-06,
        "meta_mean_motion_ddot": 0,
        "tle_line1": "1 31196U 99025BKA 25354.31111422  .00000852  00000+0  37193-3 0  9999",
        "tle_line2": "2 31196  98.5261   7.3249 0058222 189.9584 170.0447 14.25476414636030"
      },
      "geometry": {
        "type": "Point",
        "coordinates": [
          -157.96147792213404,
          48.73424176522202
        ]
      }
    },
    {
      "type": "Feature",
      "properties": {
        "norad_id": 31198,
        "name": "FENGYUN 1C DEB",
        "group": "fengyun-1c-debris",
        "lat": 53.24600714768139,
        "lon": 90.27890594833922,
        "alt_km": 988.6473178225997,
        "timestamp": "2025-12-25T07:41:10.004065+00:00",
        "meta_object_name": "FENGYUN 1C DEB",
        "meta_object_id": "1999-025BKC",
        "meta_epoch": "2025-12-23T13:31:50.289600",
        "meta_mean_motion": 13.75523772,
        "meta_eccentricity": 0.02033724,
        "meta_inclination": 98.6123,
        "meta_ra_of_asc_node": 100.3982,
        "meta_arg_of_pericenter": 322.4181,
        "meta_mean_anomaly": 36.2902,
        "meta_ephemeris_type": 0,
        "meta_classification_type": "U",
        "meta_norad_cat_id": 31198,
        "meta_element_set_no": 999,
        "meta_rev_at_epoch": 62902,
        "meta_bstar": 0.00011369936,
        "meta_mean_motion_dot": 8.8e-07,
        "meta_mean_motion_ddot": 0,
        "tle_line1": "1 31198U 99025BKC 25357.56377650  .00000088  00000+0  11370-3 0  9998",
        "tle_line2": "2 31198  98.6123 100.3982 0203372 322.4181  36.2902 13.75523772629027"
      },
      "geometry": {
        "type": "Point",
        "coordinates": [
          90.27890594833922,
          53.24600714768139
        ]
      }
    },
    {
      "type": "Feature",
      "properties": {
        "norad_id": 31199,
        "name": "FENGYUN 1C DEB",
        "group": "fengyun-1c-debris",
        "lat": -41.66359516392541,
        "lon": -10.450596759716511,
        "alt_km": 868.993556232389,
        "timestamp": "2025-12-25T07:41:10.004075+00:00",
        "meta_object_name": "FENGYUN 1C DEB",
        "meta_object_id": "1999-025BKD",
        "meta_epoch": "2025-12-24T04:57:19.082304",
        "meta_mean_motion": 14.09995283,
        "meta_eccentricity": 0.00634999,
        "meta_inclination": 98.7161,
        "meta_ra_of_asc_node": 340.6248,
        "meta_arg_of_pericenter": 226.7848,
        "meta_mean_anomaly": 199.9253,
        "meta_ephemeris_type": 0,
        "meta_classification_type": "U",
        "meta_norad_cat_id": 31199,
        "meta_element_set_no": 999,
        "meta_rev_at_epoch": 96321,
        "meta_bstar": 0.00015962806,
        "meta_mean_motion_dot": 2.44e-06,
        "meta_mean_motion_ddot": 0,
        "tle_line1": "1 31199U 99025BKD 25358.20647086  .00000244  00000+0  15963-3 0  9990",
        "tle_line2": "2 31199  98.7161 340.6248 0063499 226.7848 199.9253 14.09995283963211"
      },
      "geometry": {
        "type": "Point",
        "coordinates": [
          -10.450596759716511,
          -41.66359516392541
        ]
      }
    },
    {
      "type": "Feature",
      "properties": {
        "norad_id": 31201,
        "name": "FENGYUN 1C DEB",
        "group": "fengyun-1c-debris",
        "lat": -47.00206692441354,
        "lon": 30.95291736247241,
        "alt_km": 773.9764804688675,
        "timestamp": "2025-12-25T07:41:10.004085+00:00",
        "meta_object_name": "FENGYUN 1C DEB",
        "meta_object_id": "1999-025BKF",
        "meta_epoch": "2025-12-24T02:53:05.063136",
        "meta_mean_motion": 14.35225803,
        "meta_eccentricity": 0.01421232,
        "meta_inclination": 99.0018,
        "meta_ra_of_asc_node": 219.4895,
        "meta_arg_of_pericenter": 318.0263,
        "meta_mean_anomaly": 194.3154,
        "meta_ephemeris_type": 0,
        "meta_classification_type": "U",
        "meta_norad_cat_id": 31201,
        "meta_element_set_no": 999,
        "meta_rev_at_epoch": 97414,
        "meta_bstar": 0.00096014126,
        "meta_mean_motion_dot": 3.028e-05,
        "meta_mean_motion_ddot": 0,
        "tle_line1": "1 31201U 99025BKF 25358.12019749  .00003028  00000+0  96014-3 0  9993",
        "tle_line2": "2 31201  99.0018 219.4895 0142123 318.0263 194.3154 14.35225803974145"
      },
      "geometry": {
        "type": "Point",
        "coordinates": [
          30.95291736247241,
          -47.00206692441354
        ]
      }
    }
  ]
}